IRIDIUM 171             
1 43929U 19002H   23344.61225852  .00000254  00000+0  83565-4 0  9997
2 43929  86.3989  18.0926 0002144  92.3624 267.7818 14.34218443257158
IRIDIUM 170             
1 43930U 19002J   23344.63008603  .00000772  00000+0  11851-3 0  9997
2 43930  86.6109  17.9345 0002572  93.5210 266.6301 14.72236626263965
IRIDIUM 167             
1 43931U 19002K   23344.60591433  .00000254  00000+0  83655-4 0  9990
2 43931  86.3980  17.9053 0002161  90.3002 269.8441 14.34218390257154
IRIDIUM 181             
1 56726U 23068S   23344.73419732  .00000327  00000+0  90726-4 0  9996
2 56726  86.8639  62.3855 0002698  77.0507 283.0996 14.43571213 29805
IRIDIUM 177             
1 56727U 23068T   23344.60258257  .00001121  00000+0  14409-3 0  9992
2 56727  86.1987  45.3596 0002236  95.1221 265.0255 14.80223265 30330
IRIDIUM 174             
1 56728U 23068U   23344.66475508  .00001018  00000+0  13063-3 0  9999
2 56728  86.1996  45.4184 0002017  91.5815 268.5637 14.80202925 30344
IRIDIUM 178             
1 56729U 23068V   23344.72699747  .00001061  00000+0  13625-3 0  9992
2 56729  86.5793  53.8716 0002208  98.0684 262.0788 14.80212653 30352
IRIDIUM 179             
1 56730U 23068W   23344.58633661  .00000870  00000+0  11109-3 0  9993
2 56730  86.6801  55.6771 0002143  98.2234 261.9230 14.80209143 30335
